OBJECT_NAME,OBJECT_ID,EPOCH,MEAN_MOTION,ECCENTRICITY,INCLINATION,RA_OF_ASC_NODE,ARG_OF_PERICENTER,MEAN_ANOMALY,EPHEMERIS_TYPE,CLASSIFICATION_TYPE,NORAD_CAT_ID,ELEMENT_SET_NO,REV_AT_EPOCH,BSTAR,MEAN_MOTION_DOT,MEAN_MOTION_DDOT
KUIPER-00615,2026-151M,2026-07-10T06:00:02.000160,15.37174944,.00062228,51.8772,204.3051,130.9362,246.5538,0,U,69774,999,130,-.51834757E-3,-.19519E-3,0
KUIPER-00616,2026-151N,2026-07-10T06:00:02.000160,15.38330555,.00031932,51.8786,204.2431,107.1112,300.1499,0,U,69775,999,130,-.51126307E-3,-.19971E-3,0
KUIPER-00617,2026-151P,2026-07-10T06:00:02.000160,15.37716617,.00041225,51.8796,204.2657,119.2775,275.5868,0,U,69776,999,130,-.5137383E-3,-.19678E-3,0
KUIPER-00619,2026-151Q,2026-07-10T06:00:02.000160,15.38478831,.00016752,51.8805,204.2190,50.4921,5.4734,0,U,69777,999,130,-.50576562E-3,-.19852E-3,0
KUIPER-00621,2026-151R,2026-07-10T06:00:02.000160,15.38269350,.00020375,51.8796,204.2374,98.7641,310.3513,0,U,69778,999,203,-.51740996E-3,-.20163E-3,0
KUIPER-00622,2026-151S,2026-07-10T06:00:02.000160,15.36934323,.00069395,51.8731,204.3184,132.0873,240.1016,0,U,69779,999,189,-.52502525E-3,-.19618E-3,0
KUIPER-00623,2026-151T,2026-07-10T06:00:02.000160,15.37376839,.00051073,51.8778,204.2859,119.1008,267.5007,0,U,69780,999,201,-.53578829E-3,-.20286E-3,0
KUIPER-00626,2026-151U,2026-07-10T06:00:02.000160,15.35801581,.00102724,51.8714,204.3741,146.4255,198.3871,0,U,69781,999,224,-.51702759E-3,-.18664E-3,0
KUIPER-00627,2026-151V,2026-07-10T06:00:02.000160,15.35487070,.00115067,51.8686,204.3891,151.6688,185.7745,0,U,69782,999,130,-.46269493E-3,-.16591E-3,0
KUIPER-00629,2026-151W,2026-07-10T06:00:02.000160,15.36912172,.0007468,51.8742,204.3223,131.4679,238.4929,0,U,69783,999,158,-.52423849E-3,-.19578E-3,0
KUIPER-00631,2026-151X,2026-07-10T06:00:02.000160,15.36680805,.0008013,51.8709,204.3365,138.6906,224.6737,0,U,69784,999,130,-.5073113E-3,-.18824E-3,0
KUIPER-00634,2026-151Y,2026-07-10T06:00:02.000160,15.37676291,.00038027,51.8771,204.2742,119.8279,272.9802,0,U,69785,999,130,-.51106168E-3,-.19551E-3,0
KUIPER-00639,2026-151Z,2026-07-10T06:00:02.000160,15.36074642,.00096314,51.8683,204.3615,143.9346,207.1656,0,U,69786,999,130,-.4178862E-3,-.15294E-3,0
KUIPER-00641,2026-151AA,2026-07-10T06:00:02.000160,15.35240871,.00110912,51.8672,204.3869,147.2624,191.1194,0,U,69787,999,188,-.44308095E-3,-.1578E-3,0
KUIPER-00644,2026-151AB,2026-07-10T06:00:02.000160,15.36500522,.00087081,51.8734,204.3468,141.4959,216.5867,0,U,69788,999,218,-.49616471E-3,-.18319E-3,0
KUIPER-00646,2026-151AC,2026-07-10T06:00:02.000160,15.36051408,.00098792,51.8698,204.3582,144.4251,208.3005,0,U,69789,999,130,-.53602878E-3,-.19485E-3,0
KUIPER-00647,2026-151AD,2026-07-10T06:00:02.000160,15.35690252,.00109151,51.8660,204.3837,146.6242,193.3093,0,U,69790,999,202,-.55450736E-3,-.1992E-3,0
KUIPER-00662,2026-151AE,2026-07-10T06:00:02.000160,15.36595609,.00086637,51.8721,204.3415,136.4292,224.3761,0,U,69791,999,130,-.50973185E-3,-.18865E-3,0
LINK,2026-152A,2026-07-09T18:31:11.081856,15.65735490,.00232441,20.5939,9.1068,279.1558,80.6259,0,U,69792,999,100,.1496138E-2,.164438E-2,0
2026-152B,2026-152B,2026-07-10T05:17:25.197792,15.64427525,.0022117,20.5989,5.7168,284.0539,75.7450,0,U,69793,999,107,.42523838E-3,.4433E-3,0
STARLINK-37520,2026-154A,2026-07-10T06:00:02.000160,16.00687358,.00006117,53.1599,318.1800,71.8183,353.5212,0,U,69819,999,187,-.27479645E-2,-.1495957E-1,.69653712E-3
STARLINK-37553,2026-154B,2026-07-10T06:00:02.000160,16.00823419,.00008091,53.1597,318.1761,71.2405,355.9333,0,U,69820,999,187,-.27289514E-2,-.1497331E-1,.69875841E-3
STARLINK-37561,2026-154C,2026-07-10T06:00:02.000160,16.00955686,.00007335,53.1598,318.1722,63.0728,5.9541,0,U,69821,999,187,-.27133539E-2,-.1500157E-1,.70220601E-3
STARLINK-37521,2026-154D,2026-07-10T06:00:02.000160,16.01067989,.00009081,53.1598,318.1693,71.8268,358.6328,0,U,69822,999,187,-.26822893E-2,-.1492788E-1,.69675268E-3
STARLINK-37628,2026-154E,2026-07-10T06:00:02.000160,16.01195773,.00008882,53.1597,318.1656,70.3126,1.9101,0,U,69823,999,187,-.26586691E-2,-.149068E-1,.69593252E-3
STARLINK-37695,2026-154F,2026-07-10T06:00:02.000160,16.01328073,.00007335,53.1598,318.1619,68.0744,5.9489,0,U,69824,999,187,-.26436282E-2,-.1493626E-1,.69948556E-3
STARLINK-37690,2026-154G,2026-07-10T06:00:02.000160,16.01441874,.00007315,53.1597,318.1590,68.8811,6.6067,0,U,69825,999,187,-.26255446E-2,-.1493274E-1,.7000689E-3
STARLINK-37710,2026-154H,2026-07-10T06:00:02.000160,16.01571600,.000081,53.1597,318.1553,64.4493,12.8110,0,U,69826,999,187,-.26054559E-2,-.1493114E-1,.70094377E-3
STARLINK-38031,2026-154J,2026-07-10T06:00:02.000160,16.01680733,.00007174,53.1598,318.1517,69.3110,9.5798,0,U,69827,999,187,-.25759653E-2,-.148574E-1,.69544881E-3
