KUIPER-00615            
1 69774U 26151M   26191.25002315 -.00019519  00000+0 -51835-3 0  9996
2 69774  51.8772 204.3051 0006222 130.9362 246.5538 15.37174944  1308
KUIPER-00616            
1 69775U 26151N   26191.25002315 -.00019971  00000+0 -51126-3 0  9992
2 69775  51.8786 204.2431 0003193 107.1112 300.1499 15.38330555  1304
KUIPER-00617            
1 69776U 26151P   26191.25002315 -.00019678  00000+0 -51374-3 0  9992
2 69776  51.8796 204.2657 0004122 119.2775 275.5868 15.37716617  1309
KUIPER-00619            
1 69777U 26151Q   26191.25002315 -.00019852  00000+0 -50577-3 0  9991
2 69777  51.8805 204.2190 0001675  50.4921   5.4734 15.38478831  1308
KUIPER-00621            
1 69778U 26151R   26191.25002315 -.00020163  00000+0 -51741-3 0  9993
2 69778  51.8796 204.2374 0002037  98.7641 310.3513 15.38269350  2037
KUIPER-00622            
1 69779U 26151S   26191.25002315 -.00019618  00000+0 -52503-3 0  9994
2 69779  51.8731 204.3184 0006939 132.0873 240.1016 15.36934323  1899
KUIPER-00623            
1 69780U 26151T   26191.25002315 -.00020286  00000+0 -53579-3 0  9993
2 69780  51.8778 204.2859 0005107 119.1008 267.5007 15.37376839  2013
KUIPER-00626            
1 69781U 26151U   26191.25002315 -.00018664  00000+0 -51703-3 0  9998
2 69781  51.8714 204.3741 0010272 146.4255 198.3871 15.35801581  2241
KUIPER-00627            
1 69782U 26151V   26191.25002315 -.00016591  00000+0 -46269-3 0  9997
2 69782  51.8686 204.3891 0011506 151.6688 185.7745 15.35487070  1304
KUIPER-00629            
1 69783U 26151W   26191.25002315 -.00019578  00000+0 -52424-3 0  9996
2 69783  51.8742 204.3223 0007468 131.4679 238.4929 15.36912172  1582
KUIPER-00631            
1 69784U 26151X   26191.25002315 -.00018824  00000+0 -50731-3 0  9999
2 69784  51.8709 204.3365 0008013 138.6906 224.6737 15.36680805  1301
KUIPER-00634            
1 69785U 26151Y   26191.25002315 -.00019551  00000+0 -51106-3 0  9995
2 69785  51.8771 204.2742 0003802 119.8279 272.9802 15.37676291  1308
KUIPER-00639            
1 69786U 26151Z   26191.25002315 -.00015294  00000+0 -41789-3 0  9992
2 69786  51.8683 204.3615 0009631 143.9346 207.1656 15.36074642  1308
KUIPER-00641            
1 69787U 26151AA  26191.25002315 -.00015780  00000+0 -44308-3 0  9993
2 69787  51.8672 204.3869 0011091 147.2624 191.1194 15.35240871  1887
KUIPER-00644            
1 69788U 26151AB  26191.25002315 -.00018319  00000+0 -49616-3 0  9992
2 69788  51.8734 204.3468 0008708 141.4959 216.5867 15.36500522  2186
KUIPER-00646            
1 69789U 26151AC  26191.25002315 -.00019485  00000+0 -53603-3 0  9999
2 69789  51.8698 204.3582 0009879 144.4251 208.3005 15.36051408  1301
KUIPER-00647            
1 69790U 26151AD  26191.25002315 -.00019920  00000+0 -55451-3 0  9998
2 69790  51.8660 204.3837 0010915 146.6242 193.3093 15.35690252  2027
KUIPER-00662            
1 69791U 26151AE  26191.25002315 -.00018865  00000+0 -50973-3 0  9990
2 69791  51.8721 204.3415 0008663 136.4292 224.3761 15.36595609  1305
LINK                    
1 69792U 26152A   26190.77165604  .00164438  00000+0  14961-2 0  9991
2 69792  20.5939   9.1068 0023244 279.1558  80.6259 15.65735490  1005
2026-152B               
1 69793U 26152B   26191.22043053  .00044330  00000+0  42524-3 0  9991
2 69793  20.5989   5.7168 0022117 284.0539  75.7450 15.64427525  1077
STARLINK-37520          
1 69819U 26154A   26191.25002315 -.01495957  69654-3 -27480-2 0  9996
2 69819  53.1599 318.1800 0000611  71.8183 353.5212 16.00687358  1875
STARLINK-37553          
1 69820U 26154B   26191.25002315 -.01497331  69876-3 -27290-2 0  9991
2 69820  53.1597 318.1761 0000809  71.2405 355.9333 16.00823419  1871
STARLINK-37561          
1 69821U 26154C   26191.25002315 -.01500157  70221-3 -27134-2 0  9996
2 69821  53.1598 318.1722 0000733  63.0728   5.9541 16.00955686  1878
STARLINK-37521          
1 69822U 26154D   26191.25002315 -.01492788  69675-3 -26823-2 0  9992
2 69822  53.1598 318.1693 0000908  71.8268 358.6328 16.01067989  1878
STARLINK-37628          
1 69823U 26154E   26191.25002315 -.01490680  69593-3 -26587-2 0  9998
2 69823  53.1597 318.1656 0000888  70.3126   1.9101 16.01195773  1871
STARLINK-37695          
1 69824U 26154F   26191.25002315 -.01493626  69949-3 -26436-2 0  9990
2 69824  53.1598 318.1619 0000733  68.0744   5.9489 16.01328073  1875
STARLINK-37690          
1 69825U 26154G   26191.25002315 -.01493274  70007-3 -26255-2 0  9996
2 69825  53.1597 318.1590 0000731  68.8811   6.6067 16.01441874  1879
STARLINK-37710          
1 69826U 26154H   26191.25002315 -.01493114  70094-3 -26055-2 0  9994
2 69826  53.1597 318.1553 0000810  64.4493  12.8110 16.01571600  1874
STARLINK-38031          
1 69827U 26154J   26191.25002315 -.01485740  69545-3 -25760-2 0  9992
2 69827  53.1598 318.1517 0000717  69.3110   9.5798 16.01680733  1875
